STARLINK-1695
1 26329C 20062E   21325.15627837  .00008882  00000-0  59506-3 0  3253
2 26329  53.0520 202.5248 0001925  68.0845 146.1468 15.06390978    11
